HULIANWANG DIGUI 18J    
1 67443U 26007J   26019.28536820  .00000091  00000+0  18338-3 0  9996
2 67443  50.0098 271.9293 0006067 295.9886  64.0389 13.92553881   798
CZ-8A R/B               
1 67444U 26007K   26019.06122602 -.00000217  00000+0 -30732-4 0  9997
2 67444  50.0097 272.0762 0092161 101.6719 259.4550 14.13544695   763
ALSAT-3A                
1 67474U 26009A   26019.28393957  .00007870  00000+0  33300-3 0  9992
2 67474  97.4721  94.0419 0011450 253.1277 106.8704 15.23414246   632
CZ-2C R/B               
1 67475U 26009B   26019.27319339  .00005021  00000+0  34038-3 0  9999
2 67475  97.1814  93.4367 0098986 208.6461 150.9308 15.02897248   620
TRANSPORTER-15DT        
1 67483U 25276DT  26017.61582459  .00001158  00000+0  10212-3 0  9999
2 67483  97.5470  93.5003 0008917 314.8090  45.2407 14.98282882    73
