CCSDS_OMM_VERS = 2.0
CREATION_DATE  = 
ORIGINATOR     = 

OBJECT_NAME    = HULIANWANG DIGUI 18J
OBJECT_ID      = 2026-007J
CENTER_NAME    = EARTH
REF_FRAME      = TEME
TIME_SYSTEM    = UTC
MEAN_ELEMENT_THEORY = SGP/SGP4

EPOCH          = 2026-01-19T06:50:55.812480
MEAN_MOTION    = 13.92553881
ECCENTRICITY   = .00060678
INCLINATION    = 50.0098
RA_OF_ASC_NODE = 271.9293
ARG_OF_PERICENTER = 295.9886
MEAN_ANOMALY   = 64.0389

EPHEMERIS_TYPE = 0
CLASSIFICATION_TYPE = U
NORAD_CAT_ID   = 67443
ELEMENT_SET_NO = 999
REV_AT_EPOCH   = 79
BSTAR          = .18337518E-3
MEAN_MOTION_DOT = .91E-6
MEAN_MOTION_DDOT = 0

CCSDS_OMM_VERS = 2.0
CREATION_DATE  = 
ORIGINATOR     = 

OBJECT_NAME    = CZ-8A R/B
OBJECT_ID      = 2026-007K
CENTER_NAME    = EARTH
REF_FRAME      = TEME
TIME_SYSTEM    = UTC
MEAN_ELEMENT_THEORY = SGP/SGP4

EPOCH          = 2026-01-19T01:28:09.928128
MEAN_MOTION    = 14.13544695
ECCENTRICITY   = .00921613
INCLINATION    = 50.0097
RA_OF_ASC_NODE = 272.0762
ARG_OF_PERICENTER = 101.6719
MEAN_ANOMALY   = 259.4550

EPHEMERIS_TYPE = 0
CLASSIFICATION_TYPE = U
NORAD_CAT_ID   = 67444
ELEMENT_SET_NO = 999
REV_AT_EPOCH   = 76
BSTAR          = -.30731529E-4
MEAN_MOTION_DOT = -.217E-5
MEAN_MOTION_DDOT = 0

CCSDS_OMM_VERS = 2.0
CREATION_DATE  = 
ORIGINATOR     = 

OBJECT_NAME    = ALSAT-3A
OBJECT_ID      = 2026-009A
CENTER_NAME    = EARTH
REF_FRAME      = TEME
TIME_SYSTEM    = UTC
MEAN_ELEMENT_THEORY = SGP/SGP4

EPOCH          = 2026-01-19T06:48:52.378848
MEAN_MOTION    = 15.23414246
ECCENTRICITY   = .00114501
INCLINATION    = 97.4721
RA_OF_ASC_NODE = 94.0419
ARG_OF_PERICENTER = 253.1277
MEAN_ANOMALY   = 106.8704

EPHEMERIS_TYPE = 0
CLASSIFICATION_TYPE = U
NORAD_CAT_ID   = 67474
ELEMENT_SET_NO = 999
REV_AT_EPOCH   = 63
BSTAR          = .33299571E-3
MEAN_MOTION_DOT = .787E-4
MEAN_MOTION_DDOT = 0

CCSDS_OMM_VERS = 2.0
CREATION_DATE  = 
ORIGINATOR     = 

OBJECT_NAME    = CZ-2C R/B
OBJECT_ID      = 2026-009B
CENTER_NAME    = EARTH
REF_FRAME      = TEME
TIME_SYSTEM    = UTC
MEAN_ELEMENT_THEORY = SGP/SGP4

EPOCH          = 2026-01-19T06:33:23.908896
MEAN_MOTION    = 15.02897248
ECCENTRICITY   = .00989869
INCLINATION    = 97.1814
RA_OF_ASC_NODE = 93.4367
ARG_OF_PERICENTER = 208.6461
MEAN_ANOMALY   = 150.9308

EPHEMERIS_TYPE = 0
CLASSIFICATION_TYPE = U
NORAD_CAT_ID   = 67475
ELEMENT_SET_NO = 999
REV_AT_EPOCH   = 62
BSTAR          = .34037588E-3
MEAN_MOTION_DOT = .5021E-4
MEAN_MOTION_DDOT = 0

CCSDS_OMM_VERS = 2.0
CREATION_DATE  = 
ORIGINATOR     = 

OBJECT_NAME    = TRANSPORTER-15DT
OBJECT_ID      = 2025-276DT
CENTER_NAME    = EARTH
REF_FRAME      = TEME
TIME_SYSTEM    = UTC
MEAN_ELEMENT_THEORY = SGP/SGP4

EPOCH          = 2026-01-17T14:46:47.244576
MEAN_MOTION    = 14.98282882
ECCENTRICITY   = .00089173
INCLINATION    = 97.5470
RA_OF_ASC_NODE = 93.5003
ARG_OF_PERICENTER = 314.8090
MEAN_ANOMALY   = 45.2407

EPHEMERIS_TYPE = 0
CLASSIFICATION_TYPE = U
NORAD_CAT_ID   = 67483
ELEMENT_SET_NO = 999
REV_AT_EPOCH   = 7
BSTAR          = .10211543E-3
MEAN_MOTION_DOT = .1158E-4
MEAN_MOTION_DDOT = 0

